CCSDS_OMM_VERS = 2.0
CREATION_DATE  = 
ORIGINATOR     = 

OBJECT_NAME    = PROGRESS-MS 32
OBJECT_ID      = 2025-204A
CENTER_NAME    = EARTH
REF_FRAME      = TEME
TIME_SYSTEM    = UTC
MEAN_ELEMENT_THEORY = SGP/SGP4

EPOCH          = 2025-11-29T02:59:56.376384
MEAN_MOTION    = 15.49180644
ECCENTRICITY   = .00037368
INCLINATION    = 51.6312
RA_OF_ASC_NODE = 209.8765
ARG_OF_PERICENTER = 181.3383
MEAN_ANOMALY   = 178.7596

EPHEMERIS_TYPE = 0
CLASSIFICATION_TYPE = U
NORAD_CAT_ID   = 65586
ELEMENT_SET_NO = 999
REV_AT_EPOCH   = 27
BSTAR          = .1679519E-3
MEAN_MOTION_DOT = .8872E-4
MEAN_MOTION_DDOT = 0

CCSDS_OMM_VERS = 2.0
CREATION_DATE  = 
ORIGINATOR     = 

OBJECT_NAME    = CYGNUS NG-23
OBJECT_ID      = 2025-208A
CENTER_NAME    = EARTH
REF_FRAME      = TEME
TIME_SYSTEM    = UTC
MEAN_ELEMENT_THEORY = SGP/SGP4

EPOCH          = 2025-11-29T02:59:56.376384
MEAN_MOTION    = 15.49180644
ECCENTRICITY   = .00037368
INCLINATION    = 51.6312
RA_OF_ASC_NODE = 209.8765
ARG_OF_PERICENTER = 181.3383
MEAN_ANOMALY   = 178.7596

EPHEMERIS_TYPE = 0
CLASSIFICATION_TYPE = U
NORAD_CAT_ID   = 65616
ELEMENT_SET_NO = 999
REV_AT_EPOCH   = 22
BSTAR          = .1679519E-3
MEAN_MOTION_DOT = .8872E-4
MEAN_MOTION_DDOT = 0

CCSDS_OMM_VERS = 2.0
CREATION_DATE  = 
ORIGINATOR     = 

OBJECT_NAME    = DRAGONFLY
OBJECT_ID      = 1998-067XH
CENTER_NAME    = EARTH
REF_FRAME      = TEME
TIME_SYSTEM    = UTC
MEAN_ELEMENT_THEORY = SGP/SGP4

EPOCH          = 2025-11-29T19:29:36.665088
MEAN_MOTION    = 15.67214415
ECCENTRICITY   = .0006372
INCLINATION    = 51.6262
RA_OF_ASC_NODE = 201.7143
ARG_OF_PERICENTER = 200.0687
MEAN_ANOMALY   = 160.0059

EPHEMERIS_TYPE = 0
CLASSIFICATION_TYPE = U
NORAD_CAT_ID   = 65729
ELEMENT_SET_NO = 999
REV_AT_EPOCH   = 1113
BSTAR          = .11002E-2
MEAN_MOTION_DOT = .121835E-2
MEAN_MOTION_DDOT = 0

CCSDS_OMM_VERS = 2.0
CREATION_DATE  = 
ORIGINATOR     = 

OBJECT_NAME    = 1998-067XJ
OBJECT_ID      = 1998-067XJ
CENTER_NAME    = EARTH
REF_FRAME      = TEME
TIME_SYSTEM    = UTC
MEAN_ELEMENT_THEORY = SGP/SGP4

EPOCH          = 2025-11-29T15:51:03.748320
MEAN_MOTION    = 16.03182830
ECCENTRICITY   = .0011452
INCLINATION    = 51.6147
RA_OF_ASC_NODE = 197.6276
ARG_OF_PERICENTER = 217.0498
MEAN_ANOMALY   = 142.9723

EPHEMERIS_TYPE = 0
CLASSIFICATION_TYPE = U
NORAD_CAT_ID   = 65730
ELEMENT_SET_NO = 999
REV_AT_EPOCH   = 1117
BSTAR          = .26593E-2
MEAN_MOTION_DOT = .1655118E-1
MEAN_MOTION_DDOT = .17349E-2

CCSDS_OMM_VERS = 2.0
CREATION_DATE  = 
ORIGINATOR     = 

OBJECT_NAME    = 1998-067XK
OBJECT_ID      = 1998-067XK
CENTER_NAME    = EARTH
REF_FRAME      = TEME
TIME_SYSTEM    = UTC
MEAN_ELEMENT_THEORY = SGP/SGP4

EPOCH          = 2025-11-29T19:53:40.318368
MEAN_MOTION    = 15.62838779
ECCENTRICITY   = .0005935
INCLINATION    = 51.6290
RA_OF_ASC_NODE = 202.5853
ARG_OF_PERICENTER = 174.0290
MEAN_ANOMALY   = 186.0775

EPHEMERIS_TYPE = 0
CLASSIFICATION_TYPE = U
NORAD_CAT_ID   = 65731
ELEMENT_SET_NO = 999
REV_AT_EPOCH   = 1112
BSTAR          = .81481E-3
MEAN_MOTION_DOT = .7517E-3
MEAN_MOTION_DDOT = 0

CCSDS_OMM_VERS = 2.0
CREATION_DATE  = 
ORIGINATOR     = 

OBJECT_NAME    = RSP-03
OBJECT_ID      = 1998-067XL
CENTER_NAME    = EARTH
REF_FRAME      = TEME
TIME_SYSTEM    = UTC
MEAN_ELEMENT_THEORY = SGP/SGP4

EPOCH          = 2025-11-29T14:21:52.945344
MEAN_MOTION    = 15.64859727
ECCENTRICITY   = .0006799
INCLINATION    = 51.6270
RA_OF_ASC_NODE = 203.2919
ARG_OF_PERICENTER = 175.0951
MEAN_ANOMALY   = 185.0112

EPHEMERIS_TYPE = 0
CLASSIFICATION_TYPE = U
NORAD_CAT_ID   = 65732
ELEMENT_SET_NO = 999
REV_AT_EPOCH   = 1110
BSTAR          = .10343E-2
MEAN_MOTION_DOT = .103913E-2
MEAN_MOTION_DDOT = 0

CCSDS_OMM_VERS = 2.0
CREATION_DATE  = 
ORIGINATOR     = 

OBJECT_NAME    = GHS-01
OBJECT_ID      = 1998-067XM
CENTER_NAME    = EARTH
REF_FRAME      = TEME
TIME_SYSTEM    = UTC
MEAN_ELEMENT_THEORY = SGP/SGP4

EPOCH          = 2025-11-29T00:26:24.683136
MEAN_MOTION    = 15.68769203
ECCENTRICITY   = .00068479
INCLINATION    = 51.6287
RA_OF_ASC_NODE = 205.4181
ARG_OF_PERICENTER = 194.8011
MEAN_ANOMALY   = 165.2786

EPHEMERIS_TYPE = 0
CLASSIFICATION_TYPE = U
NORAD_CAT_ID   = 65733
ELEMENT_SET_NO = 999
REV_AT_EPOCH   = 1102
BSTAR          = .12889817E-2
MEAN_MOTION_DOT = .152819E-2
MEAN_MOTION_DDOT = 0

CCSDS_OMM_VERS = 2.0
CREATION_DATE  = 
ORIGINATOR     = 

OBJECT_NAME    = YOTSUBA-KULOVER
OBJECT_ID      = 1998-067XN
CENTER_NAME    = EARTH
REF_FRAME      = TEME
TIME_SYSTEM    = UTC
MEAN_ELEMENT_THEORY = SGP/SGP4

EPOCH          = 2025-11-29T01:16:05.255040
MEAN_MOTION    = 15.57223707
ECCENTRICITY   = .00023732
INCLINATION    = 51.6293
RA_OF_ASC_NODE = 208.6482
ARG_OF_PERICENTER = 148.1592
MEAN_ANOMALY   = 211.9543

EPHEMERIS_TYPE = 0
CLASSIFICATION_TYPE = U
NORAD_CAT_ID   = 65941
ELEMENT_SET_NO = 999
REV_AT_EPOCH   = 772
BSTAR          = .82249408E-3
MEAN_MOTION_DOT = .61013E-3
MEAN_MOTION_DDOT = 0

CCSDS_OMM_VERS = 2.0
CREATION_DATE  = 
ORIGINATOR     = 

OBJECT_NAME    = BOTAN
OBJECT_ID      = 1998-067XP
CENTER_NAME    = EARTH
REF_FRAME      = TEME
TIME_SYSTEM    = UTC
MEAN_ELEMENT_THEORY = SGP/SGP4

EPOCH          = 2025-11-29T01:59:57.907104
MEAN_MOTION    = 15.59576719
ECCENTRICITY   = .00046725
INCLINATION    = 51.6294
RA_OF_ASC_NODE = 208.1026
ARG_OF_PERICENTER = 152.2656
MEAN_ANOMALY   = 207.8587

EPHEMERIS_TYPE = 0
CLASSIFICATION_TYPE = U
NORAD_CAT_ID   = 65942
ELEMENT_SET_NO = 999
REV_AT_EPOCH   = 773
BSTAR          = .11005509E-2
MEAN_MOTION_DOT = .89783E-3
MEAN_MOTION_DDOT = 0

CCSDS_OMM_VERS = 2.0
CREATION_DATE  = 
ORIGINATOR     = 

OBJECT_NAME    = E-KAGAKU-1
OBJECT_ID      = 1998-067XQ
CENTER_NAME    = EARTH
REF_FRAME      = TEME
TIME_SYSTEM    = UTC
MEAN_ELEMENT_THEORY = SGP/SGP4

EPOCH          = 2025-11-28T20:38:30.972480
MEAN_MOTION    = 15.57173177
ECCENTRICITY   = .00038111
INCLINATION    = 51.6308
RA_OF_ASC_NODE = 209.6132
ARG_OF_PERICENTER = 129.5629
MEAN_ANOMALY   = 230.5700

EPHEMERIS_TYPE = 0
CLASSIFICATION_TYPE = U
NORAD_CAT_ID   = 65943
ELEMENT_SET_NO = 999
REV_AT_EPOCH   = 769
BSTAR          = .79009998E-3
MEAN_MOTION_DOT = .5847E-3
MEAN_MOTION_DDOT = 0

CCSDS_OMM_VERS = 2.0
CREATION_DATE  = 
ORIGINATOR     = 

OBJECT_NAME    = HRC MONOBLOCK CAMERA
OBJECT_ID      = 1998-067XR
CENTER_NAME    = EARTH
REF_FRAME      = TEME
TIME_SYSTEM    = UTC
MEAN_ELEMENT_THEORY = SGP/SGP4

EPOCH          = 2025-11-29T06:29:54.638592
MEAN_MOTION    = 15.52902397
ECCENTRICITY   = .0004608
INCLINATION    = 51.6298
RA_OF_ASC_NODE = 208.5998
ARG_OF_PERICENTER = 130.5294
MEAN_ANOMALY   = 229.6098

EPHEMERIS_TYPE = 0
CLASSIFICATION_TYPE = U
NORAD_CAT_ID   = 66052
ELEMENT_SET_NO = 999
REV_AT_EPOCH   = 674
BSTAR          = .54828116E-3
MEAN_MOTION_DOT = .34402E-3
MEAN_MOTION_DDOT = 0

CCSDS_OMM_VERS = 2.0
CREATION_DATE  = 
ORIGINATOR     = 

OBJECT_NAME    = HTV-X1
OBJECT_ID      = 2025-241A
CENTER_NAME    = EARTH
REF_FRAME      = TEME
TIME_SYSTEM    = UTC
MEAN_ELEMENT_THEORY = SGP/SGP4

EPOCH          = 2025-11-29T02:59:56.376384
MEAN_MOTION    = 15.49180644
ECCENTRICITY   = .00037368
INCLINATION    = 51.6312
RA_OF_ASC_NODE = 209.8765
ARG_OF_PERICENTER = 181.3383
MEAN_ANOMALY   = 178.7596

EPHEMERIS_TYPE = 0
CLASSIFICATION_TYPE = U
NORAD_CAT_ID   = 66174
ELEMENT_SET_NO = 999
REV_AT_EPOCH   = 51
BSTAR          = .1679519E-3
MEAN_MOTION_DOT = .8872E-4
MEAN_MOTION_DDOT = 0

